{"type": "FeatureCollection", "features": [ {"type": "Feature", "properties": {"norad_id": 30630, "name": "FENGYUN 1C DEB", "group": "fengyun-1c-debris", "lat": 33.76810232678673, "lon": -7.903749361210632, "alt_km": 814.1666828210618, "timestamp": "2025-12-18T14:52:08.303412+00:00", "meta": {"OBJECT_NAME": "FENGYUN 1C DEB", "OBJECT_ID": "1999-025ANM", "EPOCH": "2025-12-17T11:26:57.172704", "MEAN_MOTION": 14.22395156, "ECCENTRICITY": 0.00258576, "INCLINATION": 99.1724, "RA_OF_ASC_NODE": 164.7061, "ARG_OF_PERICENTER": 61.4796, "MEAN_ANOMALY": 356.8572, "EPHEMERIS_TYPE": 0, "CLASSIFICATION_TYPE": "U", "NORAD_CAT_ID": 30630, "ELEMENT_SET_NO": 999, "REV_AT_EPOCH": 97280, "BSTAR": 0.0006872095, "MEAN_MOTION_DOT": 1.488e-05, "MEAN_MOTION_DDOT": 0}, "tle": {"line1": "1 30630U 99025ANM 25351.47705061  .00001488  00000+0  68721-3 0  9990", "line2": "2 30630  99.1724 164.7061 0025857  61.4796 356.8572 14.22395156972801"}}, "geometry": {"type": "Point", "coordinates": [-7.903749361210632, 33.76810232678673]}}, {"type": "Feature", "properties": {"norad_id": 30632, "name": "FENGYUN 1C DEB", "group": "fengyun-1c-debris", "lat": 66.88446377540002, "lon": -34.28327560877331, "alt_km": 669.4229868854964, "timestamp": "2025-12-18T14:52:08.303423+00:00", "meta": {"OBJECT_NAME": "FENGYUN 1C DEB", "OBJECT_ID": "1999-025ANP", "EPOCH": "2025-12-18T03:40:19.714080", "MEAN_MOTION": 14.62932681, "ECCENTRICITY": 0.00144585, "INCLINATION": 98.8245, "RA_OF_ASC_NODE": 123.876, "ARG_OF_PERICENTER": 153.875, "MEAN_ANOMALY": 22.0357, "EPHEMERIS_TYPE": 0, "CLASSIFICATION_TYPE": "U", "NORAD_CAT_ID": 30632, "ELEMENT_SET_NO": 999, "REV_AT_EPOCH": 97770, "BSTAR": 0.0027587507, "MEAN_MOTION_DOT": 0.00014113, "MEAN_MOTION_DDOT": 0}, "tle": {"line1": "1 30632U 99025ANP 25352.15300595  .00014113  00000+0  27588-2 0  9995", "line2": "2 30632  98.8245 123.8760 0014458 153.8750  22.0357 14.62932681977701"}}, "geometry": {"type": "Point", "coordinates": [-34.28327560877331, 66.88446377540002]}}, {"type": "Feature", "properties": {"norad_id": 30633, "name": "FENGYUN 1C DEB", "group": "fengyun-1c-debris", "lat": -22.810097863830816, "lon": 33.628647419235705, "alt_km": 811.6019685205138, "timestamp": "2025-12-18T14:52:08.303433+00:00", "meta": {"OBJECT_NAME": "FENGYUN 1C DEB", "OBJECT_ID": "1999-025ANQ", "EPOCH": "2025-12-18T04:14:51.584352", "MEAN_MOTION": 14.04401184, "ECCENTRICITY": 0.01301265, "INCLINATION": 98.4201, "RA_OF_ASC_NODE": 216.7896, "ARG_OF_PERICENTER": 244.7065, "MEAN_ANOMALY": 242.9807, "EPHEMERIS_TYPE": 0, "CLASSIFICATION_TYPE": "U", "NORAD_CAT_ID": 30633, "ELEMENT_SET_NO": 999, "REV_AT_EPOCH": 95968, "BSTAR": 0.00057441685, "MEAN_MOTION_DOT": 9.46e-06, "MEAN_MOTION_DDOT": 0}, "tle": {"line1": "1 30633U 99025ANQ 25352.17698593  .00000946  00000+0  57442-3 0  9998", "line2": "2 30633  98.4201 216.7896 0130126 244.7065 242.9807 14.04401184959687"}}, "geometry": {"type": "Point", "coordinates": [33.628647419235705, -22.810097863830816]}}, {"type": "Feature", "properties": {"norad_id": 30634, "name": "FENGYUN 1C DEB", "group": "fengyun-1c-debris", "lat": -37.96649915665381, "lon": -17.032764493099403, "alt_km": 907.8433043362775, "timestamp": "2025-12-18T14:52:08.303443+00:00", "meta": {"OBJECT_NAME": "FENGYUN 1C DEB", "OBJECT_ID": "1999-025ANR", "EPOCH": "2025-12-17T22:16:25.313664", "MEAN_MOTION": 14.09746664, "ECCENTRICITY": 0.01210924, "INCLINATION": 99.2924, "RA_OF_ASC_NODE": 334.9134, "ARG_OF_PERICENTER": 82.1598, "MEAN_ANOMALY": 333.2443, "EPHEMERIS_TYPE": 0, "CLASSIFICATION_TYPE": "U", "NORAD_CAT_ID": 30634, "ELEMENT_SET_NO": 999, "REV_AT_EPOCH": 95690, "BSTAR": 0.0016173369, "MEAN_MOTION_DOT": 2.994e-05, "MEAN_MOTION_DDOT": 0}, "tle": {"line1": "1 30634U 99025ANR 25351.92807076  .00002994  00000+0  16173-2 0  9999", "line2": "2 30634  99.2924 334.9134 0121092  82.1598 333.2443 14.09746664956906"}}, "geometry": {"type": "Point", "coordinates": [-17.032764493099403, -37.96649915665381]}}, {"type": "Feature", "properties": {"norad_id": 30639, "name": "FENGYUN 1C DEB", "group": "fengyun-1c-debris", "lat": 70.07825942657627, "lon": -49.17323363891631, "alt_km": 821.3542455437628, "timestamp": "2025-12-18T14:52:08.303453+00:00", "meta": {"OBJECT_NAME": "FENGYUN 1C DEB", "OBJECT_ID": "1999-025ANW", "EPOCH": "2025-12-17T06:30:35.963712", "MEAN_MOTION": 14.32402231, "ECCENTRICITY": 0.00679729, "INCLINATION": 99.0177, "RA_OF_ASC_NODE": 103.438, "ARG_OF_PERICENTER": 268.0362, "MEAN_ANOMALY": 91.3035, "EPHEMERIS_TYPE": 0, "CLASSIFICATION_TYPE": "U", "NORAD_CAT_ID": 30639, "ELEMENT_SET_NO": 999, "REV_AT_EPOCH": 96784, "BSTAR": 0.0023555928, "MEAN_MOTION_DOT": 6.494e-05, "MEAN_MOTION_DDOT": 0}, "tle": {"line1": "1 30639U 99025ANW 25351.27124958  .00006494  00000+0  23556-2 0  9995", "line2": "2 30639  99.0177 103.4380 0067972 268.0362  91.3035 14.32402231967840"}}, "geometry": {"type": "Point", "coordinates": [-49.17323363891631, 70.07825942657627]}}, {"type": "Feature", "properties": {"norad_id": 30640, "name": "FENGYUN 1C DEB", "group": "fengyun-1c-debris", "lat": -48.79654185045501, "lon": -126.58630154328193, "alt_km": 898.0245676830573, "timestamp": "2025-12-18T14:52:08.303464+00:00", "meta": {"OBJECT_NAME": "FENGYUN 1C DEB", "OBJECT_ID": "1999-025ANX", "EPOCH": "2025-12-18T03:44:45.660192", "MEAN_MOTION": 14.14659689, "ECCENTRICITY": 0.00805004, "INCLINATION": 99.0576, "RA_OF_ASC_NODE": 63.4411, "ARG_OF_PERICENTER": 85.3744, "MEAN_ANOMALY": 304.6778, "EPHEMERIS_TYPE": 0, "CLASSIFICATION_TYPE": "U", "NORAD_CAT_ID": 30640, "ELEMENT_SET_NO": 999, "REV_AT_EPOCH": 96522, "BSTAR": 0.0011199612, "MEAN_MOTION_DOT": 2.177e-05, "MEAN_MOTION_DDOT": 0}, "tle": {"line1": "1 30640U 99025ANX 25352.15608403  .00002177  00000+0  11200-2 0  9994", "line2": "2 30640  99.0576  63.4411 0080500  85.3744 304.6778 14.14659689965226"}}, "geometry": {"type": "Point", "coordinates": [-126.58630154328193, -48.79654185045501]}}, {"type": "Feature", "properties": {"norad_id": 30641, "name": "FENGYUN 1C DEB", "group": "fengyun-1c-debris", "lat": 78.71471887880638, "lon": 159.7466048423877, "alt_km": 531.2810460075107, "timestamp": "2025-12-18T14:52:08.303474+00:00", "meta": {"OBJECT_NAME": "FENGYUN 1C DEB", "OBJECT_ID": "1999-025ANY", "EPOCH": "2025-12-17T19:13:41.728224", "MEAN_MOTION": 14.79001491, "ECCENTRICITY": 0.01363722, "INCLINATION": 98.9424, "RA_OF_ASC_NODE": 286.7391, "ARG_OF_PERICENTER": 110.7721, "MEAN_ANOMALY": 311.693, "EPHEMERIS_TYPE": 0, "CLASSIFICATION_TYPE": "U", "NORAD_CAT_ID": 30641, "ELEMENT_SET_NO": 999, "REV_AT_EPOCH": 607, "BSTAR": 0.00036971647, "MEAN_MOTION_DOT": 3.124e-05, "MEAN_MOTION_DDOT": 0}, "tle": {"line1": "1 30641U 99025ANY 25351.80117741  .00003124  00000+0  36972-3 0  9993", "line2": "2 30641  98.9424 286.7391 0136372 110.7721 311.6930 14.79001491  6071"}}, "geometry": {"type": "Point", "coordinates": [159.7466048423877, 78.71471887880638]}}, {"type": "Feature", "properties": {"norad_id": 30646, "name": "FENGYUN 1C DEB", "group": "fengyun-1c-debris", "lat": 9.784986010396155, "lon": -165.56388623170957, "alt_km": 893.3678179624703, "timestamp": "2025-12-18T14:52:08.303484+00:00", "meta": {"OBJECT_NAME": "FENGYUN 1C DEB", "OBJECT_ID": "1999-025APD", "EPOCH": "2025-12-18T07:15:11.084832", "MEAN_MOTION": 14.09665098, "ECCENTRICITY": 0.00479711, "INCLINATION": 98.6517, "RA_OF_ASC_NODE": 12.6265, "ARG_OF_PERICENTER": 16.4184, "MEAN_ANOMALY": 343.8528, "EPHEMERIS_TYPE": 0, "CLASSIFICATION_TYPE": "U", "NORAD_CAT_ID": 30646, "ELEMENT_SET_NO": 999, "REV_AT_EPOCH": 96683, "BSTAR": 0.00054815839, "MEAN_MOTION_DOT": 9.29e-06, "MEAN_MOTION_DDOT": 0}, "tle": {"line1": "1 30646U 99025APD 25352.30221163  .00000929  00000+0  54816-3 0  9995", "line2": "2 30646  98.6517  12.6265 0047971  16.4184 343.8528 14.09665098966834"}}, "geometry": {"type": "Point", "coordinates": [-165.56388623170957, 9.784986010396155]}}, {"type": "Feature", "properties": {"norad_id": 30647, "name": "FENGYUN 1C DEB", "group": "fengyun-1c-debris", "lat": -0.3198015246472563, "lon": 105.0676869048116, "alt_km": 688.1971478377809, "timestamp": "2025-12-18T14:52:08.303495+00:00", "meta": {"OBJECT_NAME": "FENGYUN 1C DEB", "OBJECT_ID": "1999-025APE", "EPOCH": "2025-12-17T07:18:41.916384", "MEAN_MOTION": 14.56560791, "ECCENTRICITY": 0.00295417, "INCLINATION": 98.9896, "RA_OF_ASC_NODE": 283.7016, "ARG_OF_PERICENTER": 159.6055, "MEAN_ANOMALY": 329.6225, "EPHEMERIS_TYPE": 0, "CLASSIFICATION_TYPE": "U", "NORAD_CAT_ID": 30647, "ELEMENT_SET_NO": 999, "REV_AT_EPOCH": 98055, "BSTAR": 0.0016306316, "MEAN_MOTION_DOT": 7.258e-05, "MEAN_MOTION_DDOT": 0}, "tle": {"line1": "1 30647U 99025APE 25351.30465181  .00007258  00000+0  16306-2 0  9998", "line2": "2 30647  98.9896 283.7016 0029541 159.6055 329.6225 14.56560791980550"}}, "geometry": {"type": "Point", "coordinates": [105.0676869048116, -0.3198015246472563]}}, {"type": "Feature", "properties": {"norad_id": 30648, "name": "FENGYUN 1C DEB", "group": "fengyun-1c-debris", "lat": 28.633656613559506, "lon": -87.83097019971186, "alt_km": 711.7376047930939, "timestamp": "2025-12-18T14:52:08.303505+00:00", "meta": {"OBJECT_NAME": "FENGYUN 1C DEB", "OBJECT_ID": "1999-025APF", "EPOCH": "2025-12-18T06:00:32.290272", "MEAN_MOTION": 14.48202782, "ECCENTRICITY": 0.00340753, "INCLINATION": 98.6413, "RA_OF_ASC_NODE": 87.029, "ARG_OF_PERICENTER": 111.4197, "MEAN_ANOMALY": 275.6836, "EPHEMERIS_TYPE": 0, "CLASSIFICATION_TYPE": "U", "NORAD_CAT_ID": 30648, "ELEMENT_SET_NO": 999, "REV_AT_EPOCH": 97946, "BSTAR": 0.0017391681, "MEAN_MOTION_DOT": 6.492e-05, "MEAN_MOTION_DDOT": 0}, "tle": {"line1": "1 30648U 99025APF 25352.25037373  .00006492  00000+0  17392-2 0  9997", "line2": "2 30648  98.6413  87.0290 0034075 111.4197 275.6836 14.48202782979463"}}, "geometry": {"type": "Point", "coordinates": [-87.83097019971186, 28.633656613559506]}}]}